XRISM                   
1 57800U 23137A   24099.39148600  .00004412  00000+0  33795-3 0  9991
2 57800  31.0028  96.5846 0010298 236.9124 123.0523 15.00200671 32116
